#dP2023  1 29  0  0  0.00000000      96 __u+U ITR00 FIT  IAC
## 2247      0.00000000   900.00000000 59973 0.0000000000000
+  119   C06C07C08C09C10C11C12C13C14C16C19C20C21C22C23C24C25
+        C26C27C28C29C30C32C33C34C35C36C37C38C39C40C41C42C43
+        C44C45C46E01E02E03E04E05E07E08E09E10E11E12E13E14E15
+        E18E19E21E24E25E26E27E30E31E33E34E36G01G02G03G04G05
+        G06G07G08G09G10G11G12G13G14G15G16G17G18G19G20G21G22
+        G23G24G25G26G27G29G30G31G32J02J03J04R01R02R03R04R05
+        R07R08R09R11R12R13R14R15R16R17R18R19R20R21R22R24R25
++         0  0  0  0  0  0  0  0  0  0  0  0  0  0  0  0  0
++         0  0  0  0  0  0  0  0  0  0  0  0  0  0  0  0  0
++         0  0  0  0  0  0  0  0  0  0  0  0  0  0  0  0  0
++         0  0  0  0  0  0  0  0  0  0  0  0  0  0  0  0  0
++         0  0  0  0  0  0  0  0  0  0  0  0  0  0  0  0  0
++         0  0  0  0  0  0  0  0  0  0  0  0  0  0  0  0  0
++         0  0  0  0  0  0  0  0  0  0  0  0  0  0  0  0  0
%c M  cc GPS ccc cccc cccc cccc cccc ccccc ccccc ccccc ccccc
%c cc cc ccc ccc cccc cccc cccc cccc ccccc ccccc ccccc ccccc
%f  0.0000000  0.000000000  0.00000000000  0.000000000000000
%f  0.0000000  0.000000000  0.00000000000  0.000000000000000
%i    0    0    0    0      0      0      0      0         0
%i    0    0    0    0      0      0      0      0         0
/* INFORMATION & ANALYSIS CENTER (IAC)      ULTRA-RAPID DATA
/* S/V CLOCKS ARE ALIGNED TO GNSS TIME                      
/* G:C1WC2W R:C1PC2P E:C1XC5X C:C2IC6I J:C1CC2S             
/* PCV:IGS20_2239 OL/AL:FES2004  NONE     YN ORB:CoN CLK:CoN
*  2023 01 29  5 30  0.00000000
PC06 -18732.940601  31849.147018  20058.801541   -188.573461
PC07  -4456.834043  38849.238572  16009.931316    192.558054
PC08  -3385.443148  20770.950677 -36508.595749    527.717857
PC09 -10989.929429  30598.748453  26937.766755    454.674805
PC10    519.163857  40989.367105  11217.211370     22.715744
PC11 -22553.193297  13640.178106   9266.666223   -151.187783
PC12 -17649.749606  -2406.399640  21524.593008    422.789826
PC13   1970.626364  23455.395035 -34773.986004    194.773324
PC14 -13960.167225   7935.643340 -22808.083464    419.285785
PC16 -19689.965398  31752.637036  19443.999688     71.640681
PC19   8883.259395 -17559.366967  19806.776262   -895.408407
PC20  16391.068682   1149.846893  22573.272127    747.525735
PC21 -14531.292759 -20624.405278 -11888.692310   -913.712038
PC22  -4097.395781 -27053.423195   5428.180687   -661.037231
PC23   2154.041890  16921.653315  22078.628825   -873.661392
PC24 -27368.693141  -3533.151692   4239.184186   -480.116926
PC25 -16881.944164  10661.953973  19491.161263     63.122947
PC26 -21812.697940 -13186.556172 -11423.011583    -71.040512
PC27  11947.679138  10542.832375 -22926.274935     88.666303
PC28  -4195.484272  21494.463855 -17288.675662     64.303026
PC29  18486.326750 -20905.541118    392.749519     73.796314
PC30  21544.756727  -6821.349395 -16392.585576      1.252767
PC32  14696.099013  20564.504070  11851.605744   -636.676362
PC33  -8827.976045  17562.354660 -19806.815974   -876.757087
PC34 -21796.777380   7895.274203  15507.448818 999999.999999
PC35   4594.540171 -22132.518864  16385.895233    689.686351
PC36  17701.362581  -9884.541746 -19156.752270   -662.019160
PC37  20424.651436  14249.177998  12567.470382   -834.632313
PC38 -13218.326391  19471.277032 -34949.899035     55.138210
PC39 -24111.282030  32205.166563  12245.553730     -1.601855
PC40  -8714.160443  36352.232248  19702.543633    -13.721819
PC41   3827.492213  26986.583182  -5932.974108   -548.306100
PC42 -16641.654410  -2535.274304 -22208.517183   -867.899262
PC43 -18916.236100  20494.109331    372.622484      4.461834
PC44 -12226.015735 -10403.850534  22816.212285    192.162356
PC45  -2673.076008 -16871.699475 -22079.977050    -53.537634
PC46  27139.314787   2274.834986  -5990.361424    -29.676228
PE01  20737.670352    321.416120 -21118.772184   -599.015072
PE02 -20559.683328     28.328623  21295.604279     17.541428
PE03 -17890.760861  12015.933344 -20297.028893   -644.629032
PE04  10958.139726 -26974.605162   5354.205574    -46.465631
PE05 -14455.355803 -10388.338080 -23648.322110   -100.606945
PE07   2576.028901  26431.098438  13081.997171    -18.797354
PE08 -10934.936064  26956.640511  -5490.139995    -27.197134
PE09  -2418.546755 -26491.591454 -12971.366170   -816.853281
PE10   6466.294899 -17288.658871  23139.606174   -508.481042
PE11  -5810.362702 -15071.239016  24801.219944    661.402988
PE12  16609.712308 -16672.976768  17970.342190   -401.882175
PE13   4824.898953  15279.822709 -24878.379462    429.628063
PE14   3737.731844  27734.567063 -16448.842803    126.803291
PE15 -16895.163057  16575.810335 -17758.407612    690.981124
PE18  -3214.621852 -19553.289247  12561.398207   -454.161733
PE19  17986.000933  -9132.298060  21670.273299  -3369.236143
PE21  23621.342648  16085.844741  -7696.909997   -509.006644
PE24 -12457.092291 -24098.750562 -11898.020352  -1084.152601
PE25 -23565.665162 -16329.567493   7387.376408   -598.215756
PE26  24022.246526   4646.380941 -16649.697062      2.446111
PE27  13254.647080  23987.769970  11159.218642   -499.143444
PE30  -5546.170369  17238.488178  23396.082309  -1198.572950
PE31   4794.385072 -17692.233757 -23242.859882   -514.579334
PE33  28479.600053  -8088.506593    228.327402   -453.218078
PE34 -28433.270146   8229.378865   -377.758973    -27.280271
PE36 -23440.124155  -5064.689290  17352.974168     -4.337673
PG01   4547.216057  14106.670226 -22369.114977    218.806759
PG02  -8214.806664 -13417.912495  22006.610337   -624.394336
PG03  10931.593805  22260.208905  -9787.083952   -368.711892
PG04   1754.681845  22652.082814  13672.416478    -39.023220
PG05   2150.695012 -17422.308144  19725.624919   -113.809374
PG06  26013.150965  -5575.204397    633.409025    565.466186
PG07  19026.096349   8624.116039  17109.515109    250.779337
PG08  -5822.127473  25562.463837  -2673.807706   -105.875192
PG09  10468.300850  13911.472607  19968.850132   -228.130002
PG10 -20320.191533  -6852.694361 -15701.580166    -22.410080
PG11  19777.141625 -12095.886023  12943.018294    -90.169004
PG12  -8007.344251 -22956.461128 -11091.435330   -333.783298
PG13  13274.746740 -22697.128600   2743.004788    467.249327
PG14  20673.626993   9279.987068 -13949.751972    -39.455879
PG15   2310.197348 -26144.661670  -3385.451065      8.710675
PG16  -6734.455460  14812.998629  20598.491762   -522.274617
PG17  15497.497335   -193.444558 -21149.376082    696.547579
PG18 -21333.306172  -6183.111778  14674.682973   -118.231862
PG19  17494.386469 -10800.908603 -16889.496076    270.428167
PG20  12168.190328  -9985.281891  21406.214553    454.096039
PG21  -4364.506555  15888.342935 -20048.549844    153.718077
PG22 -16759.368605  14754.351262 -13816.616475    415.837164
PG23 -20603.848599 -15689.862298  -6225.954776      4.029212
PG24   -674.014554 -16244.770507 -21305.893338    -50.543632
PG25 -16050.206381 -21145.237205  -3280.303106    415.435383
PG26 -16670.173725   4444.079248  20162.278153    240.935507
PG27 -12706.789153  21663.017524   7732.439981    115.463361
PG29  -6871.332537 -16984.076136  19153.452743   -583.113742
PG30  25835.075221     99.270628   6816.964568   -531.985090
PG31 -25956.029455   6295.037744   2166.000907   -207.691091
PG32 -16259.747964   3686.044454 -20467.024717   -379.216834
PJ02 -26613.447065  21174.739841  29959.094431     -0.718832
PJ03 -34988.088122  22915.958198  -1116.705444      0.022147
PJ04 -18282.874399  28946.312058 -19496.978765    120.939803
PR01  -3052.187853 -25317.257426    424.999743     22.070439
PR02  -9510.644133 -16609.754180 -16855.484890    -23.314590
PR03 -10752.319306   1716.804442 -23020.124140     71.563918
PR04  -5855.600765  18637.357828 -16363.695017    173.820311
PR05   2039.104224  25401.059135   -739.787780    106.893352
PR07  10664.233518  -2712.454178  23054.649163     48.865569
PR08   5816.916656 -18809.815418  16296.513578    -69.241814
PR09  21771.603048  12116.906597   5653.560493    101.144238
PR11  11424.525412  -6401.600117 -21886.602894      1.619855
PR12  -7966.368798 -13892.819827 -19843.740927     24.650293
PR13 -20834.277451 -12746.187862  -7391.306490    -31.434943
PR14 -22461.986235  -3644.092576  11517.313917     24.300686
PR15 -10492.563272   7026.265453  22174.896362     91.429237
PR16   7776.446311  13654.942447  20103.993956     10.585405
PR17 -21097.009185   8704.282440  11441.959459    600.003481
PR18 -19016.132963  16161.227379  -5117.341221     64.127480
PR19  -8729.227218  15500.133715 -18275.100164   -219.928082
PR20  10704.076844   4961.101659 -22608.758708    -86.728314
PR21  21412.768105  -9653.572084  -9918.256244   -369.119366
PR22  19152.206415 -15781.825398   5969.369848     68.687077
PR24 -11619.843116  -4576.154155  22264.962192    142.922550
PR25  21465.192473  -7329.104142 -11645.913205     52.908274
EOF
